TRANSPORTER-12 OBJECT AZ
1 62656U 25009AZ  26068.71026235  .00016057  00000+0  54903-3 0  9991
2 62656  97.3981 151.9913 0000987  45.3581 314.7740 15.30349724 63792
STARLINK-34278          
1 64391U 25127X   26068.38327428  .00028922  00000+0  10566-2 0  9991
2 64391  42.9994 181.2082 0001176 232.4641 127.6104 15.27574143 42423
